{
    "links": {
        "self": "http://www.neowsapp.com/rest/v1/neo/3354736?api_key=iIulBulltgU6a56xZRHN4H3l9WmuAYTsLGpBGhQ2"
    },
    "id": "3354736",
    "neo_reference_id": "3354736",
    "name": "(2006 UE185)",
    "designation": "2006 UE185",
    "nasa_jpl_url": "http://ssd.jpl.nasa.gov/sbdb.cgi?sstr=3354736",
    "absolute_magnitude_h": 24.5,
    "estimated_diameter": {
        "kilometers": {
            "estimated_diameter_min": 0.0334622374,
            "estimated_diameter_max": 0.0748238376
        },
        "meters": {
            "estimated_diameter_min": 33.4622374455,
            "estimated_diameter_max": 74.8238376074
        },
        "miles": {
            "estimated_diameter_min": 0.0207924639,
            "estimated_diameter_max": 0.0464933628
        },
        "feet": {
            "estimated_diameter_min": 109.7842471007,
            "estimated_diameter_max": 245.4850393757
        }
    },
    "is_potentially_hazardous_asteroid": false,
    "close_approach_data": [
        {
            "close_approach_date": "2006-10-25",
            "close_approach_date_full": "2006-Oct-25 12:01",
            "epoch_date_close_approach": 1161777660000,
            "relative_velocity": {
                "kilometers_per_second": "3.6837127245",
                "kilometers_per_hour": "13261.3658081909",
                "miles_per_hour": "8240.0969934284"
            },
            "miss_distance": {
                "astronomical": "0.1747229055",
                "lunar": "67.9672102395",
                "kilometers": "26138174.503011285",
                "miles": "16241508.507414333"
            },
            "orbiting_body": "Earth"
        }
    ],
    "orbital_data": {
        "orbit_id": "8",
        "orbit_determination_date": "2017-04-06 09:17:39",
        "first_observation_date": "2006-10-27",
        "last_observation_date": "2006-11-16",
        "data_arc_in_days": 20,
        "observations_used": 29,
        "orbit_uncertainty": "9",
        "minimum_orbit_intersection": ".174629",
        "jupiter_tisserand_invariant": "3.437",
        "epoch_osculation": "2454037.5",
        "eccentricity": ".4876099303832488",
        "semi_major_axis": "2.280767304996573",
        "inclination": "1.042829092721212",
        "ascending_node_longitude": "210.6406809179931",
        "orbital_period": "1258.113709751324",
        "perihelion_distance": "1.168642518186804",
        "perihelion_argument": "183.7686255360028",
        "aphelion_distance": "3.392892091806342",
        "perihelion_time": "2454036.246126224578",
        "mean_anomaly": ".3587867739245459",
        "mean_motion": ".2861426572254402",
        "equinox": "J2000",
        "orbit_class": {
            "orbit_class_type": "AMO",
            "orbit_class_description": "Near-Earth asteroid orbits similar to that of 1221 Amor",
            "orbit_class_range": "1.017 AU < q (perihelion) < 1.3 AU"
        }
    },
    "is_sentry_object": false
}